[{"OBJECT_NAME":"COSMOS 2523","OBJECT_ID":"2017-037E","EPOCH":"2026-03-09T23:01:03.762912","MEAN_MOTION":14.95066265,"ECCENTRICITY":0.0066686,"INCLINATION":97.5062,"RA_OF_ASC_NODE":86.2978,"ARG_OF_PERICENTER":201.8356,"MEAN_ANOMALY":158.0021,"EPHEMERIS_TYPE":0,"CLASSIFICATION_TYPE":"U","NORAD_CAT_ID":42986,"ELEMENT_SET_NO":999,"REV_AT_EPOCH":45413,"BSTAR":0.00015362789,"MEAN_MOTION_DOT":1.699e-5,"MEAN_MOTION_DDOT":0},{"OBJECT_NAME":"STARLINK-3512","OBJECT_ID":"2022-016AF","EPOCH":"2026-03-09T23:26:42.491616","MEAN_MOTION":15.08839759,"ECCENTRICITY":0.00014741,"INCLINATION":53.2198,"RA_OF_ASC_NODE":307.7586,"ARG_OF_PERICENTER":97.9391,"MEAN_ANOMALY":262.1769,"EPHEMERIS_TYPE":0,"CLASSIFICATION_TYPE":"U","NORAD_CAT_ID":51743,"ELEMENT_SET_NO":999,"REV_AT_EPOCH":22374,"BSTAR":2.9924762e-5,"MEAN_MOTION_DOT":1.88e-6,"MEAN_MOTION_DDOT":0}]
